ORBCOMM FM105           
1 41181U 15081C   26088.02633815  .00000252  00000+0  11533-3 0  9996
2 41181  47.0022 323.2284 0001478 172.8668 187.2233 14.45509659541952
ORBCOMM FM110           
1 41182U 15081D   26088.10938419  .00000931  00000+0  23363-3 0  9992
2 41182  47.0037  20.0408 0002498  50.7933 309.3174 14.58769502545933
ORBCOMM FM118           
1 41183U 15081E   26088.21250855  .00001065  00000+0  26206-3 0  9994
2 41183  47.0058  19.8728 0003091  11.3491 348.7464 14.58767442546054
ORBCOMM FM112           
1 41184U 15081F   26088.00992691  .00000712  00000+0  18707-3 0  9998
2 41184  46.9987 289.3231 0002049 204.5059 155.5729 14.58769677547247
ORBCOMM FM113           
1 41185U 15081G   26087.98718580  .00000556  00000+0  15402-3 0  9993
2 41185  47.0004 289.8019 0001762 215.0576 145.0194 14.58762896547225
ORBCOMM FM115           
1 41186U 15081H   26088.07246155  .00000642  00000+0  15773-3 0  9996
2 41186  46.9972 123.9624 0001920 283.3013  76.7660 14.63156539549483
ORBCOMM FM108           
1 41187U 15081J   26088.01844484  .00000725  00000+0  18994-3 0  9990
2 41187  47.0048 201.2013 0003103 202.4503 157.6247 14.58770829548378
ORBCOMM FM117           
1 41188U 15081K   26087.70985428  .00000828  00000+0  21172-3 0  9996
2 41188  47.0008 201.3189 0003585 205.3094 154.7617 14.58766807548371
ORBCOMM FM116           
1 41189U 15081L   26087.82767841  .00000655  00000+0  17508-3 0  9993
2 41189  47.0020 290.5495 0001307  45.4223 314.6769 14.58766209547205
